<?xml version="1.0" encoding="UTF-8"?>
<kml xmlns="http://www.opengis.net/kml/2.2">
  <Document>
    <Placemark>
      <name>Boundary</name>
      <Polygon>
        <outerBoundaryIs>
          <LinearRing>
            <coordinates>
              112.74,-7.24,0
              112.76,-7.24,0
              112.76,-7.26,0
              112.74,-7.26,0
              112.74,-7.24,0
            </coordinates>
          </LinearRing>
        </outerBoundaryIs>
      </Polygon>
    </Placemark>
  </Document>
</kml>
