<?xml version="1.0" encoding="UTF-8"?>
<kml xmlns="http://www.opengis.net/kml/2.2" xmlns:gx="http://www.google.com/kml/ext/2.2" xmlns:kml="http://www.opengis.net/kml/2.2" xmlns:atom="http://www.w3.org/2005/Atom">
<Document>
	<name>POP.kml</name>
	<Style id="style110040132100100">
		<IconStyle>
			<scale>0.8</scale>
			<Icon>
				<href>http://maps.google.com/mapfiles/kml/shapes/rail.png</href>
			</Icon>
			<hotSpot x="0.5" y="0" xunits="fraction" yunits="fraction"/>
		</IconStyle>
		<LabelStyle>
			<scale>0.8</scale>
		</LabelStyle>
	</Style>
	<Style id="style1110110331000000000">
		<IconStyle>
			<scale>0.8</scale>
			<Icon>
				<href>http://maps.google.com/mapfiles/kml/shapes/rail.png</href>
			</Icon>
			<hotSpot x="0.5" y="0" xunits="fraction" yunits="fraction"/>
		</IconStyle>
		<LabelStyle>
			<scale>0.8</scale>
		</LabelStyle>
	</Style>
	<StyleMap id="style11414422100100000">
		<Pair>
			<key>normal</key>
			<styleUrl>#style110040132100100</styleUrl>
		</Pair>
		<Pair>
			<key>highlight</key>
			<styleUrl>#style1110110331000000000</styleUrl>
		</Pair>
	</StyleMap>
	<Folder>
		<name>POP</name>
		<Placemark>
			<name>Waru</name>
			<description><![CDATA[<p>No: 381
<br/>Nama Stasiun: Waru
<br/>KM: 13+652
<br/>KODE STA: WR
<br/>Latitude: -7.3526914
<br/>Longitude: 112.729267
<br/>Provinsi: Jawa Timur
<br/>Kota_Kab: Kabupaten Sidoarjo
<br/>Daerah Operasi: Daop VIII Surabaya
<br/>Status: Beroperasi</p>]]></description>
			<styleUrl>#style11414422100100000</styleUrl>
			<ExtendedData>
				<Data name="No">
					<displayName>No</displayName>
					<value>381</value>
				</Data>
				<Data name="Nama Stasiun">
					<displayName>Nama Stasiun</displayName>
					<value>Waru</value>
				</Data>
				<Data name="KM">
					<displayName>KM</displayName>
					<value>13+652</value>
				</Data>
				<Data name="KODE STA">
					<displayName>KODE STA</displayName>
					<value>WR</value>
				</Data>
				<Data name="Latitude">
					<displayName>Latitude</displayName>
					<value>-7.3526914</value>
				</Data>
				<Data name="Longitude">
					<displayName>Longitude</displayName>
					<value>112.729267</value>
				</Data>
				<Data name="Provinsi">
					<displayName>Provinsi</displayName>
					<value>Jawa Timur</value>
				</Data>
				<Data name="Kota_Kab">
					<displayName>Kota_Kab</displayName>
					<value>Kabupaten Sidoarjo</value>
				</Data>
				<Data name="Daerah Operasi">
					<displayName>Daerah Operasi</displayName>
					<value>Daop VIII Surabaya</value>
				</Data>
				<Data name="Status">
					<displayName>Status</displayName>
					<value>Beroperasi</value>
				</Data>
			</ExtendedData>
			<Point>
				<coordinates>112.729267,-7.3526914,0</coordinates>
			</Point>
		</Placemark>
		<atom:link rel="app" href="https://www.google.com/earth/about/versions/#earth-pro" title="Google Earth Pro 7.3.7.1155"></atom:link>
	</Folder>
</Document>
</kml>
